ORBCOMM FM24 [-]        
1 25478U 98053D   24061.88674038  .00001364  00000+0  52061-3 0  9998
2 25478  45.0106 343.5087 0002198 358.0698   2.0141 14.35316444329808
ORBCOMM FM25 [-]        
1 25479U 98053E   24061.85214583  .00001408  00000+0  53581-3 0  9998
2 25479  45.0097 341.9118 0004346  26.5323 333.5746 14.35299916329812
ORBCOMM FM26 [-]        
1 25480U 98053F   24061.83289808  .00001192  00000+0  46588-3 0  9999
2 25480  45.0091 335.8406 0005950  52.2449 307.8936 14.34790615329756
ORBCOMM FM27 [+]        
1 25481U 98053G   24061.90892280  .00001363  00000+0  52047-3 0  9999
2 25481  45.0079 341.9074 0000957 326.2325  33.8461 14.35275621329756
ORBCOMM FM28 [-]        
1 25482U 98053H   24061.29089077  .00001156  00000+0  44502-3 0  9991
2 25482  45.0059 283.5323 0004184  85.4101 274.7224 14.35731787330334
ORBCOMM FM30 [-]        
1 25980U 99065A   24062.35857824  .00001337  00000+0  51500-3 0  9996
2 25980  45.0312 158.8218 0006921 179.5267 180.5588 14.34933812266624
ORBCOMM FM31 [-]        
1 25981U 99065B   24062.32442125  .00001282  00000+0  49582-3 0  9994
2 25981  45.0227 152.7276 0004662 206.6518 153.4091 14.34946889266174
ORBCOMM FM32 [+]        
1 25982U 99065C   24062.39555440  .00001232  00000+0  48800-3 0  9994
2 25982  45.0152 165.6939 0007021 200.8051 159.2511 14.33913017266820
